[{"OBJECT_NAME":"STARLINK-35711","OBJECT_ID":"2025-270H","EPOCH":"2026-03-09T00:14:44.671200","MEAN_MOTION":15.27572787,"ECCENTRICITY":6.019e-5,"INCLINATION":42.9996,"RA_OF_ASC_NODE":59.8664,"ARG_OF_PERICENTER":229.3637,"MEAN_ANOMALY":130.7162,"EPHEMERIS_TYPE":0,"CLASSIFICATION_TYPE":"U","NORAD_CAT_ID":66595,"ELEMENT_SET_NO":999,"REV_AT_EPOCH":1771,"BSTAR":0.0011083029,"MEAN_MOTION_DOT":0.00030355,"MEAN_MOTION_DDOT":0},{"OBJECT_NAME":"CZ-6A DEB","OBJECT_ID":"2023-168D","EPOCH":"2026-03-09T19:03:52.964928","MEAN_MOTION":15.28240044,"ECCENTRICITY":0.00013417,"INCLINATION":97.7802,"RA_OF_ASC_NODE":98.3362,"ARG_OF_PERICENTER":174.0661,"MEAN_ANOMALY":186.0594,"EPHEMERIS_TYPE":0,"CLASSIFICATION_TYPE":"U","NORAD_CAT_ID":58202,"ELEMENT_SET_NO":999,"REV_AT_EPOCH":12922,"BSTAR":0.0014474773,"MEAN_MOTION_DOT":0.00039923,"MEAN_MOTION_DDOT":0}]
